[{"OBJECT_NAME":"STARLINK-32541","OBJECT_ID":"2024-207E","EPOCH":"2026-03-09T00:01:24.014496","MEAN_MOTION":15.2760625,"ECCENTRICITY":0.00024528,"INCLINATION":43.0043,"RA_OF_ASC_NODE":289.3603,"ARG_OF_PERICENTER":271.0814,"MEAN_ANOMALY":88.9756,"EPHEMERIS_TYPE":0,"CLASSIFICATION_TYPE":"U","NORAD_CAT_ID":61916,"ELEMENT_SET_NO":999,"REV_AT_EPOCH":7457,"BSTAR":0.0014287403,"MEAN_MOTION_DOT":0.00039296,"MEAN_MOTION_DDOT":0},{"OBJECT_NAME":"OBJECT A","OBJECT_ID":"2025-013A","EPOCH":"2026-03-09T23:29:31.895232","MEAN_MOTION":15.29260221,"ECCENTRICITY":0.0010321,"INCLINATION":97.6364,"RA_OF_ASC_NODE":244.5149,"ARG_OF_PERICENTER":282.3775,"MEAN_ANOMALY":77.6309,"EPHEMERIS_TYPE":0,"CLASSIFICATION_TYPE":"U","NORAD_CAT_ID":62729,"ELEMENT_SET_NO":999,"REV_AT_EPOCH":6276,"BSTAR":0.0013206527,"MEAN_MOTION_DOT":0.00037616,"MEAN_MOTION_DDOT":0}]
